[
    {
        "Altitude(m)": 610405.2867944087,
        "Argument of Periapsis(deg)": 0.0,
        "Eccentricity": 0.0,
        "Inclination(deg)": 60.0,
        "Latitude(deg)": 52.11117160481119,
        "Longitude(deg)": -132.52247110128994,
        "Mean Anomaly(deg)": 114.54549999999999,
        "RAAN(deg)": 195.00000000000003,
        "Satellite Name": "Test1 865",
        "Satellite Number": 865,
        "Semi-Major Axis(m)": 6980739.136638005,
        "Time(s)": 0
    },
    {
        "Altitude(m)": 610321.8592394562,
        "Argument of Periapsis(deg)": 0.00010418945913296404,
        "Eccentricity": 0.0,
        "Inclination(deg)": 60.0,
        "Latitude(deg)": 51.74588541818241,
        "Longitude(deg)": -131.7535804257668,
        "Mean Anomaly(deg)": 115.16560614546184,
        "RAAN(deg)": 194.99957995086024,
        "Satellite Name": "Test1 865",
        "Satellite Number": 865,
        "Semi-Major Axis(m)": 6980739.136638005,
        "Time(s)": 10
    }
]